*******************************************************************************
Ephemeris / WWW_USER Mon Mar 10 07:01:25 2025 Pasadena, USA      / Horizons    
*******************************************************************************
Target body name: (2019 AU)                       {source: JPL#11}
Center body name: Earth (399)                     {source: DE441}
Center-site name: Mauna Kea
*******************************************************************************
Start time      : A.D. 2018-Oct-10 04:12:00.0000 UT      
Stop  time      : A.D. 2018-Oct-10 16:05:00.0000 UT      
Step-size       : 1 minutes
*******************************************************************************
Target pole/equ : undefined
Target radii    : undefined                                                    
Center geodetic : 204.5278, 19.8260847, 4.21024   {E-lon(deg),Lat(deg),Alt(km)}
Center cylindric: 204.5278, 6006.35451, 2151.0229 {E-lon(deg),Dxy(km),Dz(km)}
Center pole/equ : ITRF93                          {East-longitude positive}
Center radii    : 6378.137, 6378.137, 6356.752 km {Equator_a, b, pole_c}       
Target primary  : Sun
Vis. interferer : MOON (R_eq= 1737.400) km        {source: DE441}
Rel. light bend : Sun                             {source: DE441}
Rel. lght bnd GM: 1.3271E+11 km^3/s^2                                          
Small-body perts: Yes                             {source: SB441-N16}
Atmos refraction: NO (AIRLESS)
RA format       : HMS
Time format     : CAL 
Calendar mode   : Mixed Julian/Gregorian
RTS-only print  : NO       
EOP file        : eop.250307.p250603                                           
EOP coverage    : DATA-BASED 1962-JAN-20 TO 2025-MAR-07. PREDICTS-> 2025-JUN-02
Units conversion: 1 au= 149597870.700 km, c= 299792.458 km/s, 1 day= 86400.0 s 
Table cut-offs 1: Elevation (-90.0deg=NO ),Airmass (>38.000=NO), Daylight (YES)
Table cut-offs 2: Solar elongation (  0.0,180.0=NO ),Local Hour Angle( 0.0=NO )
Table cut-offs 3: RA/DEC angular rate (     0.0=NO )                           
*******************************************************************************
Initial IAU76/J2000 heliocentric ecliptic osculating elements (au, days, deg.):
  EPOCH=  2458490.5 ! 2019-Jan-07.00 (TDB)         Residual RMS= .17143        
   EC= .1028488096127525   QR= .9927870416208908   TP= 2458466.0562707144      
   OM= 109.6543146265929   W=  330.7265060973358   IN= 5.020660041219873       
  Equivalent ICRF heliocentric cartesian coordinates (au, au/d):
   X=-2.730606646751524E-01  Y= 8.866895536052930E-01  Z= 3.780071563225811E-01
  VX=-1.742089442644723E-02 VY=-4.449382429672076E-03 VZ=-2.237797348809624E-04
Asteroid physical parameters (km, seconds, rotational period in hours):        
   GM= n.a.                RAD= n.a.               ROTPER= n.a.                
   H= 26.7                 G= .150                 B-V= n.a.                   
                           ALBEDO= n.a.            STYP= n.a.                  
*******************************************************************************
 Date__(UT)__HR:MN     R.A._________(ICRF)_________DEC
******************************************************
$$SOE
 2018-Oct-10 04:12 Cm  02 05 43.911881 -56 31 23.34055
 2018-Oct-10 04:13 Cm  02 05 43.960561 -56 31 24.69844
 2018-Oct-10 04:14 Cm  02 05 44.009060 -56 31 26.05666
 2018-Oct-10 04:15 Cm  02 05 44.057378 -56 31 27.41518
 2018-Oct-10 04:16 Cm  02 05 44.105514 -56 31 28.77400
 2018-Oct-10 04:17 Cm  02 05 44.153469 -56 31 30.13312
 2018-Oct-10 04:18 Cm  02 05 44.201242 -56 31 31.49253
 2018-Oct-10 04:19 Cm  02 05 44.248833 -56 31 32.85222
 2018-Oct-10 04:20 Cm  02 05 44.296241 -56 31 34.21220
 2018-Oct-10 04:21 Cm  02 05 44.343467 -56 31 35.57246
 2018-Oct-10 04:22 Cm  02 05 44.390510 -56 31 36.93298
 2018-Oct-10 04:23 Cm  02 05 44.437370 -56 31 38.29377
 2018-Oct-10 04:24 Cm  02 05 44.484048 -56 31 39.65481
 2018-Oct-10 04:25 Cm  02 05 44.530542 -56 31 41.01611
 2018-Oct-10 04:26 Nm  02 05 44.576852 -56 31 42.37766
 2018-Oct-10 04:27 Nm  02 05 44.622979 -56 31 43.73945
 2018-Oct-10 04:28 Nm  02 05 44.668922 -56 31 45.10147
 2018-Oct-10 04:29 Nm  02 05 44.714681 -56 31 46.46373
 2018-Oct-10 04:30 Nm  02 05 44.760256 -56 31 47.82621
 2018-Oct-10 04:31 Nm  02 05 44.805647 -56 31 49.18892
 2018-Oct-10 04:32 Nm  02 05 44.850853 -56 31 50.55184
 2018-Oct-10 04:33 Nm  02 05 44.895875 -56 31 51.91496
 2018-Oct-10 04:34 Nm  02 05 44.940712 -56 31 53.27829
 2018-Oct-10 04:35 Nm  02 05 44.985364 -56 31 54.64182
 2018-Oct-10 04:36 Nm  02 05 45.029830 -56 31 56.00554
 2018-Oct-10 04:37 Nm  02 05 45.074112 -56 31 57.36945
 2018-Oct-10 04:38 Nm  02 05 45.118208 -56 31 58.73354
 2018-Oct-10 04:39 Nm  02 05 45.162119 -56 32 00.09780
 2018-Oct-10 04:40 Nm  02 05 45.205844 -56 32 01.46224
 2018-Oct-10 04:41 Nm  02 05 45.249384 -56 32 02.82684
 2018-Oct-10 04:42 Nm  02 05 45.292737 -56 32 04.19160
 2018-Oct-10 04:43 Nm  02 05 45.335905 -56 32 05.55651
 2018-Oct-10 04:44 Nm  02 05 45.378886 -56 32 06.92157
 2018-Oct-10 04:45 Nm  02 05 45.421682 -56 32 08.28677
 2018-Oct-10 04:46 Nm  02 05 45.464290 -56 32 09.65211
 2018-Oct-10 04:47 Nm  02 05 45.506713 -56 32 11.01758
 2018-Oct-10 04:48 Nm  02 05 45.548949 -56 32 12.38317
 2018-Oct-10 04:49 Nm  02 05 45.590998 -56 32 13.74888
 2018-Oct-10 04:50 Nm  02 05 45.632860 -56 32 15.11471
 2018-Oct-10 04:51 Am  02 05 45.674536 -56 32 16.48065
 2018-Oct-10 04:52 Am  02 05 45.716025 -56 32 17.84669
 2018-Oct-10 04:53 Am  02 05 45.757326 -56 32 19.21283
 2018-Oct-10 04:54 Am  02 05 45.798441 -56 32 20.57906
 2018-Oct-10 04:55 Am  02 05 45.839368 -56 32 21.94537
 2018-Oct-10 04:56 Am  02 05 45.880108 -56 32 23.31177
 2018-Oct-10 04:57 Am  02 05 45.920661 -56 32 24.67824
 2018-Oct-10 04:58 Am  02 05 45.961026 -56 32 26.04478
 2018-Oct-10 04:59 Am  02 05 46.001204 -56 32 27.41138
 2018-Oct-10 05:00 Am  02 05 46.041195 -56 32 28.77804
 2018-Oct-10 05:01 Am  02 05 46.080997 -56 32 30.14475
 2018-Oct-10 05:02 Am  02 05 46.120612 -56 32 31.51151
 2018-Oct-10 05:03 Am  02 05 46.160040 -56 32 32.87832
 2018-Oct-10 05:04 Am  02 05 46.199280 -56 32 34.24515
 2018-Oct-10 05:05 Am  02 05 46.238331 -56 32 35.61202
 2018-Oct-10 05:06 A   02 05 46.277196 -56 32 36.97891
 2018-Oct-10 05:07 A   02 05 46.315872 -56 32 38.34582
 2018-Oct-10 05:08 A   02 05 46.354360 -56 32 39.71274
 2018-Oct-10 05:09 A   02 05 46.392661 -56 32 41.07967
 2018-Oct-10 05:10 A   02 05 46.430773 -56 32 42.44659
 2018-Oct-10 05:11 A   02 05 46.468697 -56 32 43.81352
 2018-Oct-10 05:12 A   02 05 46.506434 -56 32 45.18044
 2018-Oct-10 05:13 A   02 05 46.543982 -56 32 46.54734
 2018-Oct-10 05:14 A   02 05 46.581343 -56 32 47.91422
 2018-Oct-10 05:15 A   02 05 46.618515 -56 32 49.28107
 2018-Oct-10 05:16 A   02 05 46.655500 -56 32 50.64789
 2018-Oct-10 05:17     02 05 46.692296 -56 32 52.01467
 2018-Oct-10 05:18     02 05 46.728905 -56 32 53.38141
 2018-Oct-10 05:19     02 05 46.765325 -56 32 54.74810
 2018-Oct-10 05:20     02 05 46.801557 -56 32 56.11473
 2018-Oct-10 05:21     02 05 46.837602 -56 32 57.48130
 2018-Oct-10 05:22     02 05 46.873458 -56 32 58.84781
 2018-Oct-10 05:23     02 05 46.909127 -56 33 00.21425
 2018-Oct-10 05:24     02 05 46.944607 -56 33 01.58060
 2018-Oct-10 05:25     02 05 46.979900 -56 33 02.94688
 2018-Oct-10 05:26     02 05 47.015004 -56 33 04.31306
 2018-Oct-10 05:27     02 05 47.049921 -56 33 05.67915
 2018-Oct-10 05:28     02 05 47.084650 -56 33 07.04514
 2018-Oct-10 05:29     02 05 47.119192 -56 33 08.41103
 2018-Oct-10 05:30     02 05 47.153545 -56 33 09.77680
 2018-Oct-10 05:31     02 05 47.187711 -56 33 11.14245
 2018-Oct-10 05:32     02 05 47.221690 -56 33 12.50799
 2018-Oct-10 05:33     02 05 47.255480 -56 33 13.87339
 2018-Oct-10 05:34     02 05 47.289084 -56 33 15.23866
 2018-Oct-10 05:35     02 05 47.322500 -56 33 16.60379
 2018-Oct-10 05:36     02 05 47.355728 -56 33 17.96878
 2018-Oct-10 05:37     02 05 47.388769 -56 33 19.33361
 2018-Oct-10 05:38     02 05 47.421623 -56 33 20.69829
 2018-Oct-10 05:39     02 05 47.454290 -56 33 22.06281
 2018-Oct-10 05:40     02 05 47.486770 -56 33 23.42715
 2018-Oct-10 05:41     02 05 47.519063 -56 33 24.79133
 2018-Oct-10 05:42     02 05 47.551169 -56 33 26.15532
 2018-Oct-10 05:43     02 05 47.583088 -56 33 27.51913
 2018-Oct-10 05:44     02 05 47.614820 -56 33 28.88275
 2018-Oct-10 05:45     02 05 47.646366 -56 33 30.24618
 2018-Oct-10 05:46     02 05 47.677726 -56 33 31.60940
 2018-Oct-10 05:47     02 05 47.708899 -56 33 32.97241
 2018-Oct-10 05:48     02 05 47.739886 -56 33 34.33522
 2018-Oct-10 05:49     02 05 47.770686 -56 33 35.69780
 2018-Oct-10 05:50     02 05 47.801301 -56 33 37.06016
 2018-Oct-10 05:51     02 05 47.831729 -56 33 38.42229
 2018-Oct-10 05:52     02 05 47.861972 -56 33 39.78419
 2018-Oct-10 05:53     02 05 47.892029 -56 33 41.14584
 2018-Oct-10 05:54     02 05 47.921901 -56 33 42.50725
 2018-Oct-10 05:55     02 05 47.951587 -56 33 43.86841
 2018-Oct-10 05:56     02 05 47.981088 -56 33 45.22931
 2018-Oct-10 05:57     02 05 48.010404 -56 33 46.58995
 2018-Oct-10 05:58     02 05 48.039535 -56 33 47.95032
 2018-Oct-10 05:59     02 05 48.068481 -56 33 49.31041
 2018-Oct-10 06:00     02 05 48.097242 -56 33 50.67022
 2018-Oct-10 06:01     02 05 48.125819 -56 33 52.02975
 2018-Oct-10 06:02     02 05 48.154212 -56 33 53.38899
 2018-Oct-10 06:03     02 05 48.182420 -56 33 54.74793
 2018-Oct-10 06:04     02 05 48.210444 -56 33 56.10657
 2018-Oct-10 06:05     02 05 48.238285 -56 33 57.46491
 2018-Oct-10 06:06     02 05 48.265941 -56 33 58.82293
 2018-Oct-10 06:07     02 05 48.293415 -56 34 00.18063
 2018-Oct-10 06:08     02 05 48.320705 -56 34 01.53801
 2018-Oct-10 06:09     02 05 48.347811 -56 34 02.89506
 2018-Oct-10 06:10     02 05 48.374735 -56 34 04.25177
 2018-Oct-10 06:11     02 05 48.401476 -56 34 05.60814
 2018-Oct-10 06:12     02 05 48.428035 -56 34 06.96417
 2018-Oct-10 06:13     02 05 48.454411 -56 34 08.31985
 2018-Oct-10 06:14     02 05 48.480605 -56 34 09.67516
